satname,norad_id,inclination_deg,eccentricity,mean_motion_rev_per_day,perigee_km,apogee_km,l1,l2
STARLINK-1465,45731,53.052,0.0001727,15.06400077,546.0153142891786,548.4073295995777,1 45731U 20038B   25295.77987376  .00005589  00000+0  39380-3 0  9992,2 45731  53.0520 135.7187 0001727  82.6794 277.4391 15.06400077295405
STARLINK-1471,45735,53.0509,0.000232,15.40408383,443.3201863226104,446.4860769436882,1 45735U 20038F   25295.40701080  .00026694  00000+0  65770-3 0  9994,2 45735  53.0509  79.8744 0002320 137.5993 222.5190 15.40408383296162
STARLINK-1474,45738,53.0401,0.0003009,15.65359908,370.17269003459205,374.23504516871526,1 45738U 20038J   25295.71986993  .00078821  00000+0  77446-3 0  9991,2 45738  53.0401  37.3510 0003009 277.6299  82.4374 15.65359908296786
STARLINK-1475,45739,53.0507,0.0005116,15.72929762,347.08635917586616,353.97112996571104,1 45739U 20038K   25295.91668980  .00122274  00000+0  87237-3 0  9998,2 45739  53.0507   3.4306 0005116 321.8908 160.2460 15.72929762  5958
STARLINK-1480,45741,53.0518,0.0001426,15.06389004,546.2576997893902,548.2328188097417,1 45741U 20038M   25295.76144730  .00003686  00000+0  26631-3 0  9992,2 45741  53.0518 135.8031 0001426  86.3340 273.7812 15.06389004295410
STARLINK-1500,45744,53.036,0.0004282,15.27033723,481.74667299786506,487.6239940442929,1 45744U 20038Q   25295.79524258  .00022882  00000+0  86138-3 0  9992,2 45744  53.0360 115.7342 0004282 158.7775 201.3401 15.27033723295697
STARLINK-1504,45746,53.0293,0.0004117,15.39310897,445.3354580578916,450.95621934727933,1 45746U 20038S   25295.80859742  .00066680  00000+0  16789-2 0  9993,2 45746  53.0293  81.0584 0004117 165.8957 194.2161 15.39310897296175
STARLINK-1506,45747,53.0523,0.0003363,15.21045364,500.3721452800346,505.00018694156097,1 45747U 20038T   25295.78232755  .00010365  00000+0  47479-3 0  9990,2 45747  53.0523 117.9055 0003363 177.1127 182.9889 15.21045364295660
STARLINK-1464,45751,53.0528,0.0001406,15.06372714,546.3214710952379,548.2689026261824,1 45751U 20038X   25295.76330022 -.00000212  00000+0  46336-5 0  9993,2 45751  53.0528 115.7937 0001406  87.5086 272.6064 15.06372714295699
STARLINK-1477,45754,53.0518,0.0001419,15.06394843,546.2446542424505,548.2100726487961,1 45754U 20038AA  25295.77802132  .00005695  00000+0  40097-3 0  9998,2 45754  53.0518 115.7255 0001419  87.0655 273.0496 15.06394843295696
STARLINK-1478,45755,53.052,0.0001339,15.06394278,546.3017885795362,548.1564016198045,1 45755U 20038AB  25295.79645091  .00001241  00000+0  10223-3 0  9991,2 45755  53.0520 115.6446 0001339  96.4363 263.6779 15.06394278295682
STARLINK-1484,45756,53.0183,0.0001116,15.58914859,390.0410263499816,391.55185229363906,1 45756U 20038AC  25295.91668980  .00016544  00000+0  21542-3 0  9996,2 45756  53.0183  24.0431 0001116 267.3663   4.0887 15.58914859  5923
STARLINK-1493,45759,53.052,0.0001378,15.06399336,546.259279691676,548.1679063151087,1 45759U 20038AF  25295.78540032  .00003507  00000+0  25419-3 0  9993,2 45759  53.0520 115.6937 0001378  82.1329 277.9816 15.06399336295688
STARLINK-1494,45760,53.0534,7.73e-05,15.5058514,414.49141187013447,415.54163340473406,1 45760U 20038AG  25295.83699132  .00039255  00000+0  67903-3 0  9990,2 45760  53.0534 103.3004 0000773  24.4624 335.6420 15.50585140295872
STARLINK-1502,45764,53.0522,0.0001255,15.06403082,546.3329820097078,548.0712421268363,1 45764U 20038AL  25295.75223240  .00005134  00000+0  36325-3 0  9991,2 45764  53.0522 115.8419 0001255  96.2417 263.8715 15.06403082295698
STARLINK-1470,45772,53.049,0.0004204,15.17106372,511.69349189803233,517.4888977642477,1 45772U 20038AU  25295.80357169  .00022802  00000+0  11485-2 0  9994,2 45772  53.0490  88.7530 0004204 183.8974 176.1987 15.17106372296075
STARLINK-1482,45773,53.052,0.0001468,15.06394001,546.2133002028895,548.2465879376687,1 45773U 20038AV  25295.45181823  .00003050  00000+0  22360-3 0  9997,2 45773  53.0520  97.1916 0001468  80.8317 279.2838 15.06394001295927
STARLINK-1485,45774,53.0434,0.0006075,16.01404202,266.49017601616924,274.56830549868937,1 45774U 20038AW  25295.74979145  .00572358  15863-3  10089-2 0  9995,2 45774  53.0434  29.5425 0006075 342.1902  17.8914 16.01404202296898
STARLINK-1496,45780,53.0527,0.0001426,15.06386367,546.2657807721971,548.2409020975738,1 45780U 20038BC  25295.81674663  .00007862  00000+0  54629-3 0  9992,2 45780  53.0527  95.5529 0001426  90.8715 269.2438 15.06386367295966
STARLINK-1497,45781,53.0404,0.0006051,15.51552392,408.0841243936302,416.30178170281033,1 45781U 20038BD  25295.91668980  .00108737  00000+0  17870-2 0  9998,2 45781  53.0404  43.3073 0006051 224.8125  15.3184 15.51552392  5745
STARLINK-1510,45784,53.0348,0.0001506,15.66585698,367.66609131401583,369.6982332456946,1 45784U 20038BG  25295.91668980  .00154833  00000+0  14302-2 0  9996,2 45784  53.0348  20.4682 0001506 115.1561 249.1806 15.66585698  5933
STARLINK-1513,45786,53.0525,0.0001653,15.06391971,546.0914015918852,548.3809299604909,1 45786U 20038BJ  25295.44812949  .00005146  00000+0  36420-3 0  9990,2 45786  53.0525  97.2087 0001653 105.2593 254.8578 15.06391971295923
STARLINK-1522,46027,53.0573,0.0001451,15.06381459,546.2635076945171,548.2732603369577,1 46027U 20055A   25295.56149220  .00001669  00000+0  13096-3 0  9996,2 46027  53.0573  26.7014 0001451 101.0450 259.0702 15.06381459288067
STARLINK-1523,46028,53.0567,0.0001703,15.06437779,545.9164060229823,548.2751403055217,1 46028U 20055B   25295.64254095  .00008187  00000+0  56728-3 0  9994,2 46028  53.0567  26.3359 0001703 105.7668 254.3509 15.06437779288094
STARLINK-1526,46029,53.0566,0.0001638,15.0639043,546.1065118670449,548.3752656634042,1 46029U 20055C   25295.63521066  .00001676  00000+0  13140-3 0  9996,2 46029  53.0566  26.3665 0001638  90.3382 269.7794 15.06390430288080
STARLINK-1555,46032,53.0554,0.0001438,15.06393256,546.236359309175,548.2280954989774,1 46032U 20055F   25295.55411446 -.00000549  00000+0 -17965-4 0  9991,2 46032  53.0554  26.7318 0001438  88.0581 272.0572 15.06393256288072
STARLINK-1556,46033,53.0551,0.0001534,15.06404763,546.1346138382642,548.2593062972137,1 46033U 20055G   25295.53567588  .00005199  00000+0  36765-3 0  9991,2 46033  53.0551  26.8148 0001534  99.8267 260.2895 15.06404763288040
STARLINK-1557,46034,53.0558,0.0001591,15.06402946,546.1007073682485,548.3043504063407,1 46034U 20055H   25295.47301852 -.00004652  00000+0 -29355-3 0  9997,2 46034  53.0558  27.0959 0001591  83.4146 276.7024 15.06402946288035
